STARLINK-1838
1 17129C 20088H   21326.04342845  .00003742  00000-0  25072-3 0  3264
2 17129  53.0517 133.5456 0001728  79.6046 225.7534 15.06394007    17
